CCSDS_OMM_VERS,COMMENT,CREATION_DATE,ORIGINATOR,OBJECT_NAME,OBJECT_ID,CENTER_NAME,REF_FRAME,TIME_SYSTEM,MEAN_ELEMENT_THEORY,EPOCH,MEAN_MOTION,ECCENTRICITY,INCLINATION,RA_OF_ASC_NODE,ARG_OF_PERICENTER,MEAN_ANOMALY,EPHEMERIS_TYPE,CLASSIFICATION_TYPE,NORAD_CAT_ID,ELEMENT_SET_NO,REV_AT_EPOCH,BSTAR,MEAN_MOTION_DOT,MEAN_MOTION_DDOT,SEMIMAJOR_AXIS,PERIOD,APOAPSIS,PERIAPSIS,OBJECT_TYPE,RCS_SIZE,COUNTRY_CODE,LAUNCH_DATE,SITE,DECAY_DATE,FILE,GP_ID,TLE_LINE0,TLE_LINE1,TLE_LINE2
"2.0","GENERATED VIA SPACE-TRACK.ORG API","2008-11-26T06:37:25","18 SPCS","IRIDIUM 33","1997-051C","EARTH","TEME","UTC","SGP4","2008-11-26T13:46:28.722720","14.34218671","0.00021840","86.3988","153.0971","82.1373","278.0071","0","U","24946","999","58655","0.00000316710000","0.00000029","0.0000000000000","7155.805","100.403","779.233","776.107","PAYLOAD","LARGE","US","1997-09-14","TTMTR","","637907","68821556","0 IRIDIUM 33","1 24946U 97051C   08331.57394355  .00000029  00000-0  31671-5 0  9997","2 24946 086.3988 153.0971 0002184 082.1373 278.0071 14.34218671586555"
"2.0","GENERATED VIA SPACE-TRACK.ORG API","2008-11-26T08:22:06","18 SPCS","IRIDIUM 33","1997-051C","EARTH","TEME","UTC","SGP4","2008-11-26T13:46:28.722720","14.34218570","0.00021910","86.3988","153.0971","82.3594","277.7845","0","U","24946","999","58655","-0.00000420590000","0.00000008","0.0000000000000","7155.806","100.403","779.238","776.103","PAYLOAD","LARGE","US","1997-09-14","TTMTR","","638048","68823780","0 IRIDIUM 33","1 24946U 97051C   08331.57394355  .00000008  00000-0 -42059-5 0  9997","2 24946 086.3988 153.0971 0002191 082.3594 277.7845 14.34218570586553"
"2.0","GENERATED VIA SPACE-TRACK.ORG API","2009-01-06T15:18:05","18 SPCS","COSMOS 2251","1993-036A","EARTH","TEME","UTC","SGP4","2008-11-26T21:53:29.442911","14.31131463","0.00174390","74.0338","155.3020","250.7227","109.2039","0","U","22675","999","80674","0.00001496300000","0.00000013","0.0000000000000","7166.092","100.619","800.454","775.460","PAYLOAD","LARGE","CIS","1993-06-16","PKMTR","","655385","69124088","0 COSMOS 2251","1 22675U 93036A   08331.91214633 +.00000013 +00000-0 +14963-4 0  9998","2 22675 074.0338 155.3020 0017439 250.7227 109.2039 14.31131463806740"
"2.0","GENERATED VIA SPACE-TRACK.ORG API","2009-01-06T15:18:05","18 SPCS","IRIDIUM 33","1997-051C","EARTH","TEME","UTC","SGP4","2008-11-26T22:08:48.721632","14.34218664","0.00022150","86.3988","152.9514","82.7181","277.4278","0","U","24946","999","58660","0.00000662910000","0.00000038","0.0000000000000","7155.805","100.403","779.255","776.085","PAYLOAD","LARGE","US","1997-09-14","TTMTR","","655385","69124444","0 IRIDIUM 33","1 24946U 97051C   08331.92278613 +.00000038 +00000-0 +66291-5 0  9990","2 24946 086.3988 152.9514 0002215 082.7181 277.4278 14.34218664586604"
"2.0","GENERATED VIA SPACE-TRACK.ORG API","2008-11-26T22:49:14","18 SPCS","COSMOS 2251","1993-036A","EARTH","TEME","UTC","SGP4","2008-11-27T01:14:48.640703","14.31131460","0.00174350","74.0337","155.0473","250.4099","109.5169","0","U","22675","999","80676","0.00001457600000","0.00000012","0.0000000000000","7166.092","100.619","800.451","775.463","PAYLOAD","LARGE","CIS","1993-06-16","PKMTR","","638276","68826616","0 COSMOS 2251","1 22675U 93036A   08332.05195186  .00000012  00000-0  14576-4 0  9994","2 22675 074.0337 155.0473 0017435 250.4099 109.5169 14.31131460806764"
"2.0","GENERATED VIA SPACE-TRACK.ORG API","2008-11-27T08:16:37","18 SPCS","IRIDIUM 33","1997-051C","EARTH","TEME","UTC","SGP4","2008-11-27T13:13:00.681311","14.34218358","0.00021870","86.3988","152.6893","80.9963","279.1477","0","U","24946","999","58669","-0.00001268000000","-0.00000016","0.0000000000000","7155.806","100.403","779.236","776.106","PAYLOAD","LARGE","US","1997-09-14","TTMTR","","638459","68830689","0 IRIDIUM 33","1 24946U 97051C   08332.55070233 -.00000016  00000-0 -12680-4 0  9998","2 24946 086.3988 152.6893 0002187 080.9963 279.1477 14.34218358586696"
"2.0","GENERATED VIA SPACE-TRACK.ORG API","2009-01-06T15:18:05","18 SPCS","COSMOS 2251","1993-036A","EARTH","TEME","UTC","SGP4","2008-11-27T21:22:43.858560","14.31131608","0.00174440","74.0338","153.5197","248.5786","111.3507","0","U","22675","999","80688","0.00001870400000","0.00000023","0.0000000000000","7166.092","100.619","800.457","775.456","PAYLOAD","LARGE","CIS","1993-06-16","PKMTR","","655392","69152851","0 COSMOS 2251","1 22675U 93036A   08332.89078540 +.00000023 +00000-0 +18704-4 0  9999","2 22675 074.0338 153.5197 0017444 248.5786 111.3507 14.31131608806886"
"2.0","GENERATED VIA SPACE-TRACK.ORG API","2009-01-06T15:18:05","18 SPCS","IRIDIUM 33","1997-051C","EARTH","TEME","UTC","SGP4","2008-11-27T23:15:48.650976","14.34218485","0.00022080","86.3988","152.5145","81.4228","278.7217","0","U","24946","999","58675","0.00000073331000","0.00000022","0.0000000000000","7155.806","100.403","779.251","776.091","PAYLOAD","LARGE","US","1997-09-14","TTMTR","","655392","69153190","0 IRIDIUM 33","1 24946U 97051C   08332.96931309 +.00000022 +00000-0 +73331-6 0  9990","2 24946 086.3988 152.5145 0002208 081.4228 278.7217 14.34218485586754"
"2.0","GENERATED VIA SPACE-TRACK.ORG API","2008-11-28T14:56:04","18 SPCS","COSMOS 2251","1993-036A","EARTH","TEME","UTC","SGP4","2008-11-28T14:09:19.857888","14.31131778","0.00174310","74.0338","152.2467","247.1504","112.7809","0","U","22675","999","80698","0.00002200000000","0.00000032","0.0000000000000","7166.091","100.619","800.448","775.465","PAYLOAD","LARGE","CIS","1993-06-16","PKMTR","","638979","68838120","0 COSMOS 2251","1 22675U 93036A   08333.58981317  .00000032  00000-0  22000-4 0  9995","2 22675 074.0338 152.2467 0017431 247.1504 112.7809 14.31131778806980"
"2.0","GENERATED VIA SPACE-TRACK.ORG API","2008-11-28T08:18:22","18 SPCS","IRIDIUM 33","1997-051C","EARTH","TEME","UTC","SGP4","2008-11-28T14:20:00.635711","14.34218268","0.00022030","86.3986","152.2521","79.5640","280.5803","0","U","24946","999","58684","-0.00001376000000","-0.00000019","0.0000000000000","7155.807","100.403","779.248","776.095","PAYLOAD","LARGE","US","1997-09-14","TTMTR","","638831","68837349","0 IRIDIUM 33","1 24946U 97051C   08333.59722958 -.00000019  00000-0 -13760-4 0  9994","2 24946 086.3986 152.2521 0002203 079.5640 280.5803 14.34218268586849"
"2.0","GENERATED VIA SPACE-TRACK.ORG API","2009-01-06T15:18:05","18 SPCS","COSMOS 2251","1993-036A","EARTH","TEME","UTC","SGP4","2008-11-28T22:32:37.854528","14.31131937","0.00174270","74.0338","151.6102","246.4300","113.5029","0","U","22675","999","80703","0.00002645400000","0.00000044","0.0000000000000","7166.091","100.619","800.444","775.467","PAYLOAD","LARGE","CIS","1993-06-16","PKMTR","","655396","69167152","0 COSMOS 2251","1 22675U 93036A   08333.93932702 +.00000044 +00000-0 +26454-4 0  9998","2 22675 074.0338 151.6102 0017427 246.4300 113.5029 14.31131937807037"
"2.0","GENERATED VIA SPACE-TRACK.ORG API","2009-01-06T15:18:05","18 SPCS","IRIDIUM 33","1997-051C","EARTH","TEME","UTC","SGP4","2008-11-28T22:42:20.629439","14.34218460","0.00022200","86.3985","152.1062","79.9262","280.2199","0","U","24946","999","58689","0.00000514680000","0.00000034","0.0000000000000","7155.806","100.403","779.259","776.082","PAYLOAD","LARGE","US","1997-09-14","TTMTR","","655396","69167477","0 IRIDIUM 33","1 24946U 97051C   08333.94607210 +.00000034 +00000-0 +51468-5 0  9999","2 24946 086.3985 152.1062 0002220 079.9262 280.2199 14.34218460586894"
"2.0","GENERATED VIA SPACE-TRACK.ORG API","2008-11-29T08:11:32","18 SPCS","IRIDIUM 33","1997-051C","EARTH","TEME","UTC","SGP4","2008-11-29T13:46:32.600351","14.34218056","0.00022170","86.3985","151.8442","79.9881","280.1563","0","U","24946","999","58698","-0.00002016900000","-0.00000037","0.0000000000000","7155.807","100.403","779.259","776.086","PAYLOAD","LARGE","US","1997-09-14","TTMTR","","639309","68844535","0 IRIDIUM 33","1 24946U 97051C   08334.57398843 -.00000037  00000-0 -20169-4 0  9996","2 24946 086.3985 151.8442 0002217 079.9881 280.1563 14.34218056586980"
"2.0","GENERATED VIA SPACE-TRACK.ORG API","2008-11-29T14:49:15","18 SPCS","COSMOS 2251","1993-036A","EARTH","TEME","UTC","SGP4","2008-11-29T18:40:33.049056","14.31132039","0.00174290","74.0338","150.0824","244.7984","115.1366","0","U","22675","999","80715","0.00002541800000","0.00000041","0.0000000000000","7166.090","100.619","800.445","775.466","PAYLOAD","LARGE","CIS","1993-06-16","PKMTR","","639355","68845190","0 COSMOS 2251","1 22675U 93036A   08334.77816029  .00000041  00000-0  25418-4 0  9990","2 22675 074.0338 150.0824 0017429 244.7984 115.1366 14.31132039807151"
"2.0","GENERATED VIA SPACE-TRACK.ORG API","2009-01-06T15:18:05","18 SPCS","IRIDIUM 33","1997-051C","EARTH","TEME","UTC","SGP4","2008-11-29T22:08:52.599263","14.34218176","0.00022410","86.3985","151.6984","81.0499","279.0964","0","U","24946","999","58703","-0.00000536820000","0.00000005","0.0000000000000","7155.807","100.403","779.275","776.068","PAYLOAD","LARGE","US","1997-09-14","TTMTR","","655394","69160445","0 IRIDIUM 33","1 24946U 97051C   08334.92283101 +.00000005 +00000-0 -53682-5 0  9996","2 24946 086.3985 151.6984 0002241 081.0499 279.0964 14.34218176587037"
"2.0","GENERATED VIA SPACE-TRACK.ORG API","2008-11-30T22:45:03","18 SPCS","COSMOS 2251","1993-036A","EARTH","TEME","UTC","SGP4","2008-11-30T21:31:06.633120","14.31132069","0.00174250","74.0336","148.0453","242.5892","117.3481","0","U","22675","999","80731","0.00002050500000","0.00000028","0.0000000000000","7166.090","100.619","800.442","775.468","PAYLOAD","LARGE","CIS","1993-06-16","PKMTR","","639870","68854413","0 COSMOS 2251","1 22675U 93036A   08335.89660455  .00000028  00000-0  20505-4 0  9991","2 22675 074.0336 148.0453 0017425 242.5892 117.3481 14.31132069807317"
